[Satellite]
VERSION=1.1
NAME=BRASILSAT B2
NICKNAME=BRASILSAT B2
TLE1=1 23536U 95016A   17185.56438213 -.00000288  00000-0  00000-0 0  9993
TLE2=2 23536   7.2105  51.0516 0002033  49.9940 316.8702  1.00272987 81537
